{
  "type": "FeatureCollection",
  "features": [
    {
      "type": "Feature",
      "properties": {
        "norad_id": 31319,
        "name": "FENGYUN 1C DEB",
        "group": "fengyun-1c-debris",
        "lat": -79.84240378502903,
        "lon": -45.21966096663497,
        "alt_km": 1089.4856275732163,
        "timestamp": "2025-12-22T11:33:20.721260+00:00",
        "meta_object_name": "FENGYUN 1C DEB",
        "meta_object_id": "1999-025BPX",
        "meta_epoch": "2025-12-21T23:50:01.503744",
        "meta_mean_motion": 13.75832162,
        "meta_eccentricity": 0.0170636,
        "meta_inclination": 98.8312,
        "meta_ra_of_asc_node": 254.1351,
        "meta_arg_of_pericenter": 62.3771,
        "meta_mean_anomaly": 315.9435,
        "meta_ephemeris_type": 0,
        "meta_classification_type": "U",
        "meta_norad_cat_id": 31319,
        "meta_element_set_no": 999,
        "meta_rev_at_epoch": 93815,
        "meta_bstar": 0.00020035,
        "meta_mean_motion_dot": 1.77e-06,
        "meta_mean_motion_ddot": 0,
        "tle_line1": "1 31319U 99025BPX 25355.99307296  .00000177  00000+0  20035-3 0  9994",
        "tle_line2": "2 31319  98.8312 254.1351 0170636  62.3771 315.9435 13.75832162938154"
      },
      "geometry": {
        "type": "Point",
        "coordinates": [
          -45.21966096663497,
          -79.84240378502903
        ]
      }
    },
    {
      "type": "Feature",
      "properties": {
        "norad_id": 31321,
        "name": "FENGYUN 1C DEB",
        "group": "fengyun-1c-debris",
        "lat": 77.74799101686943,
        "lon": -59.81360687610516,
        "alt_km": 825.3836108528067,
        "timestamp": "2025-12-22T11:33:20.721270+00:00",
        "meta_object_name": "FENGYUN 1C DEB",
        "meta_object_id": "1999-025BPZ",
        "meta_epoch": "2025-12-21T11:18:43.092576",
        "meta_mean_motion": 14.13827699,
        "meta_eccentricity": 0.00303049,
        "meta_inclination": 98.7333,
        "meta_ra_of_asc_node": 74.1401,
        "meta_arg_of_pericenter": 153.2037,
        "meta_mean_anomaly": 207.0709,
        "meta_ephemeris_type": 0,
        "meta_classification_type": "U",
        "meta_norad_cat_id": 31321,
        "meta_element_set_no": 999,
        "meta_rev_at_epoch": 57507,
        "meta_bstar": 0.00012257196,
        "meta_mean_motion_dot": 1.9e-06,
        "meta_mean_motion_ddot": 0,
        "tle_line1": "1 31321U 99025BPZ 25355.47133209  .00000190  00000+0  12257-3 0  9993",
        "tle_line2": "2 31321  98.7333  74.1401 0030304 153.2037 207.0709 14.13827699575072"
      },
      "geometry": {
        "type": "Point",
        "coordinates": [
          -59.81360687610516,
          77.74799101686943
        ]
      }
    },
    {
      "type": "Feature",
      "properties": {
        "norad_id": 31322,
        "name": "FENGYUN 1C DEB",
        "group": "fengyun-1c-debris",
        "lat": 33.662653127149234,
        "lon": -114.98364670899849,
        "alt_km": 1152.7328541885709,
        "timestamp": "2025-12-22T11:33:20.721280+00:00",
        "meta_object_name": "FENGYUN 1C DEB",
        "meta_object_id": "1999-025BQA",
        "meta_epoch": "2025-12-21T23:28:53.162112",
        "meta_mean_motion": 13.73000942,
        "meta_eccentricity": 0.023811,
        "meta_inclination": 98.5721,
        "meta_ra_of_asc_node": 58.8003,
        "meta_arg_of_pericenter": 345.4886,
        "meta_mean_anomaly": 194.0927,
        "meta_ephemeris_type": 0,
        "meta_classification_type": "U",
        "meta_norad_cat_id": 31322,
        "meta_element_set_no": 999,
        "meta_rev_at_epoch": 62402,
        "meta_bstar": 0.00020708,
        "meta_mean_motion_dot": 1.96e-06,
        "meta_mean_motion_ddot": 0,
        "tle_line1": "1 31322U 99025BQA 25355.97839308  .00000196  00000+0  20708-3 0  9998",
        "tle_line2": "2 31322  98.5721  58.8003 0238110 345.4886 194.0927 13.73000942624027"
      },
      "geometry": {
        "type": "Point",
        "coordinates": [
          -114.98364670899849,
          33.662653127149234
        ]
      }
    },
    {
      "type": "Feature",
      "properties": {
        "norad_id": 31323,
        "name": "FENGYUN 1C DEB",
        "group": "fengyun-1c-debris",
        "lat": 3.5811731486403247,
        "lon": -143.7002845502263,
        "alt_km": 814.432987733755,
        "timestamp": "2025-12-22T11:33:20.721293+00:00",
        "meta_object_name": "FENGYUN 1C DEB",
        "meta_object_id": "1999-025BQB",
        "meta_epoch": "2025-12-20T21:43:51.769056",
        "meta_mean_motion": 14.27642156,
        "meta_eccentricity": 0.0030892,
        "meta_inclination": 99.4195,
        "meta_ra_of_asc_node": 34.0071,
        "meta_arg_of_pericenter": 56.5612,
        "meta_mean_anomaly": 303.8513,
        "meta_ephemeris_type": 0,
        "meta_classification_type": "U",
        "meta_norad_cat_id": 31323,
        "meta_element_set_no": 999,
        "meta_rev_at_epoch": 64097,
        "meta_bstar": 0.0010025,
        "meta_mean_motion_dot": 2.433e-05,
        "meta_mean_motion_ddot": 0,
        "tle_line1": "1 31323U 99025BQB 25354.90546029  .00002433  00000+0  10025-2 0  9992",
        "tle_line2": "2 31323  99.4195  34.0071 0030892  56.5612 303.8513 14.27642156640970"
      },
      "geometry": {
        "type": "Point",
        "coordinates": [
          -143.7002845502263,
          3.5811731486403247
        ]
      }
    },
    {
      "type": "Feature",
      "properties": {
        "norad_id": 31324,
        "name": "FENGYUN 1C DEB",
        "group": "fengyun-1c-debris",
        "lat": -11.606709479100145,
        "lon": 96.27740614715324,
        "alt_km": 844.2154764317293,
        "timestamp": "2025-12-22T11:33:20.721320+00:00",
        "meta_object_name": "FENGYUN 1C DEB",
        "meta_object_id": "1999-025BQC",
        "meta_epoch": "2025-12-21T14:16:42.684672",
        "meta_mean_motion": 14.14700279,
        "meta_eccentricity": 0.0048997,
        "meta_inclination": 99.1242,
        "meta_ra_of_asc_node": 277.2633,
        "meta_arg_of_pericenter": 278.9209,
        "meta_mean_anomaly": 80.6419,
        "meta_ephemeris_type": 0,
        "meta_classification_type": "U",
        "meta_norad_cat_id": 31324,
        "meta_element_set_no": 999,
        "meta_rev_at_epoch": 96611,
        "meta_bstar": 0.00014071,
        "meta_mean_motion_dot": 2.27e-06,
        "meta_mean_motion_ddot": 0,
        "tle_line1": "1 31324U 99025BQC 25355.59493848  .00000227  00000+0  14071-3 0  9994",
        "tle_line2": "2 31324  99.1242 277.2633 0048997 278.9209  80.6419 14.14700279966112"
      },
      "geometry": {
        "type": "Point",
        "coordinates": [
          96.27740614715324,
          -11.606709479100145
        ]
      }
    },
    {
      "type": "Feature",
      "properties": {
        "norad_id": 31325,
        "name": "FENGYUN 1C DEB",
        "group": "fengyun-1c-debris",
        "lat": -1.2074122271482808,
        "lon": -89.44793029840629,
        "alt_km": 787.7883216605496,
        "timestamp": "2025-12-22T11:33:20.721331+00:00",
        "meta_object_name": "FENGYUN 1C DEB",
        "meta_object_id": "1999-025BQD",
        "meta_epoch": "2025-12-17T00:12:23.735520",
        "meta_mean_motion": 14.16922892,
        "meta_eccentricity": 0.00720914,
        "meta_inclination": 98.9915,
        "meta_ra_of_asc_node": 85.2122,
        "meta_arg_of_pericenter": 208.4071,
        "meta_mean_anomaly": 151.3165,
        "meta_ephemeris_type": 0,
        "meta_classification_type": "U",
        "meta_norad_cat_id": 31325,
        "meta_element_set_no": 999,
        "meta_rev_at_epoch": 59838,
        "meta_bstar": 0.0016097339,
        "meta_mean_motion_dot": 3.269e-05,
        "meta_mean_motion_ddot": 0,
        "tle_line1": "1 31325U 99025BQD 25351.00860805  .00003269  00000+0  16097-2 0  9996",
        "tle_line2": "2 31325  98.9915  85.2122 0072091 208.4071 151.3165 14.16922892598387"
      },
      "geometry": {
        "type": "Point",
        "coordinates": [
          -89.44793029840629,
          -1.2074122271482808
        ]
      }
    },
    {
      "type": "Feature",
      "properties": {
        "norad_id": 31326,
        "name": "FENGYUN 1C DEB",
        "group": "fengyun-1c-debris",
        "lat": -1.318372782009716,
        "lon": 59.72518838184674,
        "alt_km": 574.4384779348538,
        "timestamp": "2025-12-22T11:33:20.721343+00:00",
        "meta_object_name": "FENGYUN 1C DEB",
        "meta_object_id": "1999-025BQE",
        "meta_epoch": "2025-12-15T15:32:28.923936",
        "meta_mean_motion": 15.00424804,
        "meta_eccentricity": 0.00131933,
        "meta_inclination": 98.9962,
        "meta_ra_of_asc_node": 232.0333,
        "meta_arg_of_pericenter": 356.0949,
        "meta_mean_anomaly": 4.0165,
        "meta_ephemeris_type": 0,
        "meta_classification_type": "U",
        "meta_norad_cat_id": 31326,
        "meta_element_set_no": 999,
        "meta_rev_at_epoch": 73789,
        "meta_bstar": 0.0045407433,
        "meta_mean_motion_dot": 0.00057569,
        "meta_mean_motion_ddot": 0,
        "tle_line1": "1 31326U 99025BQE 25349.64755699  .00057569  00000+0  45407-2 0  9997",
        "tle_line2": "2 31326  98.9962 232.0333 0013193 356.0949   4.0165 15.00424804737897"
      },
      "geometry": {
        "type": "Point",
        "coordinates": [
          59.72518838184674,
          -1.318372782009716
        ]
      }
    }
  ]
}